[{"OBJECT_NAME":"STARLINK-3982","OBJECT_ID":"2022-052S","EPOCH":"2026-03-09T17:28:10.694784","MEAN_MOTION":15.48361805,"ECCENTRICITY":0.00020893,"INCLINATION":53.2099,"RA_OF_ASC_NODE":229.892,"ARG_OF_PERICENTER":327.4144,"MEAN_ANOMALY":32.6737,"EPHEMERIS_TYPE":0,"CLASSIFICATION_TYPE":"U","NORAD_CAT_ID":52614,"ELEMENT_SET_NO":999,"REV_AT_EPOCH":21155,"BSTAR":0.0012374593,"MEAN_MOTION_DOT":0.00066701,"MEAN_MOTION_DDOT":0},{"OBJECT_NAME":"SITRO-AIS 48","OBJECT_ID":"2024-199AN","EPOCH":"2026-03-09T22:14:21.736608","MEAN_MOTION":15.49861286,"ECCENTRICITY":0.00072978,"INCLINATION":97.3088,"RA_OF_ASC_NODE":302.9717,"ARG_OF_PERICENTER":300.4722,"MEAN_ANOMALY":59.5809,"EPHEMERIS_TYPE":0,"CLASSIFICATION_TYPE":"U","NORAD_CAT_ID":61771,"ELEMENT_SET_NO":999,"REV_AT_EPOCH":11901,"BSTAR":0.00079867142,"MEAN_MOTION_DOT":0.00044677,"MEAN_MOTION_DDOT":0}]
